STARLINK-31690          
1 59581U 24076T   26068.15974687 -.00002134  00000+0 -68075-4 0  9997
2 59581  43.0064  11.8152 0001079 265.0084  95.0645 15.27566842106436
BLUEBON                 
1 62688U 25009CH  26068.70316231  .00010452  00000+0  37313-3 0  9992
2 62688  97.4017 152.2033 0001193  43.3900 316.7434 15.29047253 63767
